STARLINK-36325          
1 67861U 26034M   26071.63147078  .00349433  00000+0  16920-2 0  9990
2 67861  53.1580 196.5166 0001022  72.8662 287.2473 15.81017137  4407
STARLINK-36332          
1 67862U 26034N   26071.63072105  .00265477  00000+0  13002-2 0  9992
2 67862  53.1581 196.5124 0001264  98.8073 261.3093 15.80997690  4406
STARLINK-36835          
1 67863U 26034P   26071.62996829  .00239282  00000+0  11759-2 0  9992
2 67863  53.1585 196.5062 0001123  68.3921 291.7221 15.80995163  4403
STARLINK-36831          
1 67864U 26034Q   26071.62922014  .00284315  00000+0  13885-2 0  9997
2 67864  53.1582 196.5018 0001201  82.0001 278.1159 15.81006924  4409
STARLINK-36738          
1 67865U 26034R   26071.56525409  .00333178  00000+0  16175-2 0  9995
2 67865  53.1581 196.8127 0000932  57.5961 302.5152 15.81003537  4395
STARLINK-36780          
1 67866U 26034S   26071.62771809  .00308056  00000+0  14988-2 0  9997
2 67866  53.1586 196.4898 0001075  95.1692 264.9454 15.81024775  4405
STARLINK-36761          
1 67867U 26034T   26071.56375271  .00258892  00000+0  12697-2 0  9991
2 67867  53.1587 196.8013 0000813  91.5823 268.5293 15.80984422  4397
STARLINK-36762          
1 67868U 26034U   26071.62621908  .00202162  00000+0  99967-3 0  9995
2 67868  53.1583 196.4806 0001131  96.8219 263.2932 15.80966801  4406
STARLINK-36779          
1 67869U 26034V   26071.62546801  .00290267  00000+0  14161-2 0  9999
2 67869  53.1585 196.4745 0001072  84.6052 275.5093 15.81014228  4407
STARLINK-36770          
1 67870U 26034W   26071.56075101  .00291724  00000+0  14243-2 0  9994
2 67870  53.1584 196.7806 0000973  70.6734 289.4394 15.80992173  4399
STARLINK-36769          
1 67871U 26034X   26071.56150926  .00318799  00000+0  15556-2 0  9994
2 67871  53.1585 196.7865 0001653  58.5115 301.6069 15.80932433  4399
STARLINK-36786          
1 67872U 26034Y   26071.56000184  .00197535  00000+0  97832-3 0  9996
2 67872  53.1584 196.7772 0000912  68.1470 291.9650 15.80946253  4396
