CCSDS_OMM_VERS = 2.0
CREATION_DATE  = 
ORIGINATOR     = 

OBJECT_NAME    = STARLINK-36325
OBJECT_ID      = 2026-034M
CENTER_NAME    = EARTH
REF_FRAME      = TEME
TIME_SYSTEM    = UTC
MEAN_ELEMENT_THEORY = SGP/SGP4

EPOCH          = 2026-03-12T15:09:19.075392
MEAN_MOTION    = 15.81017137
ECCENTRICITY   = .00010226
INCLINATION    = 53.1580
RA_OF_ASC_NODE = 196.5166
ARG_OF_PERICENTER = 72.8662
MEAN_ANOMALY   = 287.2473

EPHEMERIS_TYPE = 0
CLASSIFICATION_TYPE = U
NORAD_CAT_ID   = 67861
ELEMENT_SET_NO = 999
REV_AT_EPOCH   = 440
BSTAR          = .16919826E-2
MEAN_MOTION_DOT = .349433E-2
MEAN_MOTION_DDOT = 0

CCSDS_OMM_VERS = 2.0
CREATION_DATE  = 
ORIGINATOR     = 

OBJECT_NAME    = STARLINK-36332
OBJECT_ID      = 2026-034N
CENTER_NAME    = EARTH
REF_FRAME      = TEME
TIME_SYSTEM    = UTC
MEAN_ELEMENT_THEORY = SGP/SGP4

EPOCH          = 2026-03-12T15:08:14.298720
MEAN_MOTION    = 15.80997690
ECCENTRICITY   = .00012647
INCLINATION    = 53.1581
RA_OF_ASC_NODE = 196.5124
ARG_OF_PERICENTER = 98.8073
MEAN_ANOMALY   = 261.3093

EPHEMERIS_TYPE = 0
CLASSIFICATION_TYPE = U
NORAD_CAT_ID   = 67862
ELEMENT_SET_NO = 999
REV_AT_EPOCH   = 440
BSTAR          = .13001617E-2
MEAN_MOTION_DOT = .265477E-2
MEAN_MOTION_DDOT = 0

CCSDS_OMM_VERS = 2.0
CREATION_DATE  = 
ORIGINATOR     = 

OBJECT_NAME    = STARLINK-36835
OBJECT_ID      = 2026-034P
CENTER_NAME    = EARTH
REF_FRAME      = TEME
TIME_SYSTEM    = UTC
MEAN_ELEMENT_THEORY = SGP/SGP4

EPOCH          = 2026-03-12T15:07:09.260256
MEAN_MOTION    = 15.80995163
ECCENTRICITY   = .00011231
INCLINATION    = 53.1585
RA_OF_ASC_NODE = 196.5062
ARG_OF_PERICENTER = 68.3921
MEAN_ANOMALY   = 291.7221

EPHEMERIS_TYPE = 0
CLASSIFICATION_TYPE = U
NORAD_CAT_ID   = 67863
ELEMENT_SET_NO = 999
REV_AT_EPOCH   = 440
BSTAR          = .1175936E-2
MEAN_MOTION_DOT = .239282E-2
MEAN_MOTION_DDOT = 0

CCSDS_OMM_VERS = 2.0
CREATION_DATE  = 
ORIGINATOR     = 

OBJECT_NAME    = STARLINK-36831
OBJECT_ID      = 2026-034Q
CENTER_NAME    = EARTH
REF_FRAME      = TEME
TIME_SYSTEM    = UTC
MEAN_ELEMENT_THEORY = SGP/SGP4

EPOCH          = 2026-03-12T15:06:04.620096
MEAN_MOTION    = 15.81006924
ECCENTRICITY   = .00012012
INCLINATION    = 53.1582
RA_OF_ASC_NODE = 196.5018
ARG_OF_PERICENTER = 82.0001
MEAN_ANOMALY   = 278.1159

EPHEMERIS_TYPE = 0
CLASSIFICATION_TYPE = U
NORAD_CAT_ID   = 67864
ELEMENT_SET_NO = 999
REV_AT_EPOCH   = 440
BSTAR          = .13885185E-2
MEAN_MOTION_DOT = .284315E-2
MEAN_MOTION_DDOT = 0

CCSDS_OMM_VERS = 2.0
CREATION_DATE  = 
ORIGINATOR     = 

OBJECT_NAME    = STARLINK-36738
OBJECT_ID      = 2026-034R
CENTER_NAME    = EARTH
REF_FRAME      = TEME
TIME_SYSTEM    = UTC
MEAN_ELEMENT_THEORY = SGP/SGP4

EPOCH          = 2026-03-12T13:33:57.953376
MEAN_MOTION    = 15.81003537
ECCENTRICITY   = .00009329
INCLINATION    = 53.1581
RA_OF_ASC_NODE = 196.8127
ARG_OF_PERICENTER = 57.5961
MEAN_ANOMALY   = 302.5152

EPHEMERIS_TYPE = 0
CLASSIFICATION_TYPE = U
NORAD_CAT_ID   = 67865
ELEMENT_SET_NO = 999
REV_AT_EPOCH   = 439
BSTAR          = .16175144E-2
MEAN_MOTION_DOT = .333178E-2
MEAN_MOTION_DDOT = 0

CCSDS_OMM_VERS = 2.0
CREATION_DATE  = 
ORIGINATOR     = 

OBJECT_NAME    = STARLINK-36780
OBJECT_ID      = 2026-034S
CENTER_NAME    = EARTH
REF_FRAME      = TEME
TIME_SYSTEM    = UTC
MEAN_ELEMENT_THEORY = SGP/SGP4

EPOCH          = 2026-03-12T15:03:54.842976
MEAN_MOTION    = 15.81024775
ECCENTRICITY   = .0001075
INCLINATION    = 53.1586
RA_OF_ASC_NODE = 196.4898
ARG_OF_PERICENTER = 95.1692
MEAN_ANOMALY   = 264.9454

EPHEMERIS_TYPE = 0
CLASSIFICATION_TYPE = U
NORAD_CAT_ID   = 67866
ELEMENT_SET_NO = 999
REV_AT_EPOCH   = 440
BSTAR          = .14987691E-2
MEAN_MOTION_DOT = .308056E-2
MEAN_MOTION_DDOT = 0

CCSDS_OMM_VERS = 2.0
CREATION_DATE  = 
ORIGINATOR     = 

OBJECT_NAME    = STARLINK-36761
OBJECT_ID      = 2026-034T
CENTER_NAME    = EARTH
REF_FRAME      = TEME
TIME_SYSTEM    = UTC
MEAN_ELEMENT_THEORY = SGP/SGP4

EPOCH          = 2026-03-12T13:31:48.234144
MEAN_MOTION    = 15.80984422
ECCENTRICITY   = .00008136
INCLINATION    = 53.1587
RA_OF_ASC_NODE = 196.8013
ARG_OF_PERICENTER = 91.5823
MEAN_ANOMALY   = 268.5293

EPHEMERIS_TYPE = 0
CLASSIFICATION_TYPE = U
NORAD_CAT_ID   = 67867
ELEMENT_SET_NO = 999
REV_AT_EPOCH   = 439
BSTAR          = .12697289E-2
MEAN_MOTION_DOT = .258892E-2
MEAN_MOTION_DDOT = 0

CCSDS_OMM_VERS = 2.0
CREATION_DATE  = 
ORIGINATOR     = 

OBJECT_NAME    = STARLINK-36762
OBJECT_ID      = 2026-034U
CENTER_NAME    = EARTH
REF_FRAME      = TEME
TIME_SYSTEM    = UTC
MEAN_ELEMENT_THEORY = SGP/SGP4

EPOCH          = 2026-03-12T15:01:45.328512
MEAN_MOTION    = 15.80966801
ECCENTRICITY   = .00011315
INCLINATION    = 53.1583
RA_OF_ASC_NODE = 196.4806
ARG_OF_PERICENTER = 96.8219
MEAN_ANOMALY   = 263.2932

EPHEMERIS_TYPE = 0
CLASSIFICATION_TYPE = U
NORAD_CAT_ID   = 67868
ELEMENT_SET_NO = 999
REV_AT_EPOCH   = 440
BSTAR          = .99966677E-3
MEAN_MOTION_DOT = .202162E-2
MEAN_MOTION_DDOT = 0

CCSDS_OMM_VERS = 2.0
CREATION_DATE  = 
ORIGINATOR     = 

OBJECT_NAME    = STARLINK-36779
OBJECT_ID      = 2026-034V
CENTER_NAME    = EARTH
REF_FRAME      = TEME
TIME_SYSTEM    = UTC
MEAN_ELEMENT_THEORY = SGP/SGP4

EPOCH          = 2026-03-12T15:00:40.436064
MEAN_MOTION    = 15.81014228
ECCENTRICITY   = .00010724
INCLINATION    = 53.1585
RA_OF_ASC_NODE = 196.4745
ARG_OF_PERICENTER = 84.6052
MEAN_ANOMALY   = 275.5093

EPHEMERIS_TYPE = 0
CLASSIFICATION_TYPE = U
NORAD_CAT_ID   = 67869
ELEMENT_SET_NO = 999
REV_AT_EPOCH   = 440
BSTAR          = .14160504E-2
MEAN_MOTION_DOT = .290267E-2
MEAN_MOTION_DDOT = 0

CCSDS_OMM_VERS = 2.0
CREATION_DATE  = 
ORIGINATOR     = 

OBJECT_NAME    = STARLINK-36770
OBJECT_ID      = 2026-034W
CENTER_NAME    = EARTH
REF_FRAME      = TEME
TIME_SYSTEM    = UTC
MEAN_ELEMENT_THEORY = SGP/SGP4

EPOCH          = 2026-03-12T13:27:28.887264
MEAN_MOTION    = 15.80992173
ECCENTRICITY   = .00009733
INCLINATION    = 53.1584
RA_OF_ASC_NODE = 196.7806
ARG_OF_PERICENTER = 70.6734
MEAN_ANOMALY   = 289.4394

EPHEMERIS_TYPE = 0
CLASSIFICATION_TYPE = U
NORAD_CAT_ID   = 67870
ELEMENT_SET_NO = 999
REV_AT_EPOCH   = 439
BSTAR          = .14243347E-2
MEAN_MOTION_DOT = .291724E-2
MEAN_MOTION_DDOT = 0

CCSDS_OMM_VERS = 2.0
CREATION_DATE  = 
ORIGINATOR     = 

OBJECT_NAME    = STARLINK-36769
OBJECT_ID      = 2026-034X
CENTER_NAME    = EARTH
REF_FRAME      = TEME
TIME_SYSTEM    = UTC
MEAN_ELEMENT_THEORY = SGP/SGP4

EPOCH          = 2026-03-12T13:28:34.400064
MEAN_MOTION    = 15.80932433
ECCENTRICITY   = .00016539
INCLINATION    = 53.1585
RA_OF_ASC_NODE = 196.7865
ARG_OF_PERICENTER = 58.5115
MEAN_ANOMALY   = 301.6069

EPHEMERIS_TYPE = 0
CLASSIFICATION_TYPE = U
NORAD_CAT_ID   = 67871
ELEMENT_SET_NO = 999
REV_AT_EPOCH   = 439
BSTAR          = .15555794E-2
MEAN_MOTION_DOT = .318799E-2
MEAN_MOTION_DDOT = 0

CCSDS_OMM_VERS = 2.0
CREATION_DATE  = 
ORIGINATOR     = 

OBJECT_NAME    = STARLINK-36786
OBJECT_ID      = 2026-034Y
CENTER_NAME    = EARTH
REF_FRAME      = TEME
TIME_SYSTEM    = UTC
MEAN_ELEMENT_THEORY = SGP/SGP4

EPOCH          = 2026-03-12T13:26:24.158976
MEAN_MOTION    = 15.80946253
ECCENTRICITY   = .00009125
INCLINATION    = 53.1584
RA_OF_ASC_NODE = 196.7772
ARG_OF_PERICENTER = 68.1470
MEAN_ANOMALY   = 291.9650

EPHEMERIS_TYPE = 0
CLASSIFICATION_TYPE = U
NORAD_CAT_ID   = 67872
ELEMENT_SET_NO = 999
REV_AT_EPOCH   = 439
BSTAR          = .97831694E-3
MEAN_MOTION_DOT = .197535E-2
MEAN_MOTION_DDOT = 0

